ESEO                    
1 43792U 18099AL  26068.65529582  .00002831  00000+0  20935-3 0  9991
2 43792  97.4113 110.2601 0011063 317.6000  42.4371 15.03914518396849
STARLINK-6175           
1 56882U 23083G   26068.05697753 -.00001027  00000+0 -60966-4 0  9991
2 56882  43.0041  85.3496 0001323 265.3763  94.6929 15.02529146151572
