[{"OBJECT_NAME":"ESEO","OBJECT_ID":"2018-099AL","EPOCH":"2026-03-09T15:43:37.559712","MEAN_MOTION":15.03914518,"ECCENTRICITY":0.00110626,"INCLINATION":97.4113,"RA_OF_ASC_NODE":110.2601,"ARG_OF_PERICENTER":317.6,"MEAN_ANOMALY":42.4371,"EPHEMERIS_TYPE":0,"CLASSIFICATION_TYPE":"U","NORAD_CAT_ID":43792,"ELEMENT_SET_NO":999,"REV_AT_EPOCH":39684,"BSTAR":0.00020934561,"MEAN_MOTION_DOT":2.831e-5,"MEAN_MOTION_DDOT":0},{"OBJECT_NAME":"STARLINK-6175","OBJECT_ID":"2023-083G","EPOCH":"2026-03-09T01:22:02.858592","MEAN_MOTION":15.02529146,"ECCENTRICITY":0.00013234,"INCLINATION":43.0041,"RA_OF_ASC_NODE":85.3496,"ARG_OF_PERICENTER":265.3763,"MEAN_ANOMALY":94.6929,"EPHEMERIS_TYPE":0,"CLASSIFICATION_TYPE":"U","NORAD_CAT_ID":56882,"ELEMENT_SET_NO":999,"REV_AT_EPOCH":15157,"BSTAR":-6.0965703e-5,"MEAN_MOTION_DOT":-1.027e-5,"MEAN_MOTION_DDOT":0}]
